ONEWEB-0707             
1 61612U 24188U   25144.86459000 -.00000616  00000+0 -18004-2 0  9996
2 61612  87.8803 113.6667 0002618  93.0781 267.0646 13.10376654 32469
ONEWEB-0708             
1 61613U 24188V   25144.42471802  .00000182  00000+0  48409-3 0  9992
2 61613  87.8860 113.7488 0002889  85.5108 274.6350 13.10375403 32382
